GLOBALSTAR M094         
1 39074U 13005C   24208.25528189 -.00000085  00000+0  10660-3 0  9997
2 39074  51.9960  94.4836 0000478  36.5332 323.5567 12.62266163531218
GLOBALSTAR M096         
1 39075U 13005D   24208.18937076 -.00000078  00000+0  14658-3 0  9992
2 39075  52.0063 142.9442 0000245 343.0373  17.0486 12.62267808530121
GLOBALSTAR M078         
1 39076U 13005E   24208.55895772 -.00000113  00000+0 -50273-4 0  9995
2 39076  51.9845 226.7742 0001096 167.6704 192.4190 12.62273409528799
GLOBALSTAR M095         
1 39077U 13005F   24208.50592726 -.00000106  00000+0 -97595-5 0  9995
2 39077  51.9771 224.2922 0000672 204.6723 155.4111 12.62262686528644
GLOBALSTAR M087         
1 52888U 22064A   24208.56239598 -.00000085  00000+0  82242-4 0  9993
2 52888  51.9763  71.0815 0010074 102.2837 257.9192 13.37579494102797
